{"type": "FeatureCollection", "features": [ {"type": "Feature", "properties": {"norad_id": 66505, "name": "STARLINK-34766", "group": "last-30-days", "lat": 34.7731752837495, "lon": -88.9374303482451, "alt_km": 410.60076050452517, "timestamp": "2025-12-10T07:43:53.548746+00:00", "meta": {"OBJECT_NAME": "STARLINK-34766", "OBJECT_ID": "2025-263W", "EPOCH": "2025-12-09T20:00:01.999008", "MEAN_MOTION": 15.50569667, "ECCENTRICITY": 0.0001661, "INCLINATION": 43.0007, "RA_OF_ASC_NODE": 142.0887, "ARG_OF_PERICENTER": 281.1189, "MEAN_ANOMALY": 350.3409, "EPHEMERIS_TYPE": 0, "CLASSIFICATION_TYPE": "U", "NORAD_CAT_ID": 66505, "ELEMENT_SET_NO": 999, "REV_AT_EPOCH": 516, "BSTAR": -8.4154e-05, "MEAN_MOTION_DOT": -5.274e-05, "MEAN_MOTION_DDOT": 0}, "tle": {"line1": "1 66505U 25263W   25343.83335647 -.00005274  00000+0 -84154-4 0  9991", "line2": "2 66505  43.0007 142.0887 0001661 281.1189 350.3409 15.50569667  5168"}}, "geometry": {"type": "Point", "coordinates": [-88.9374303482451, 34.7731752837495]}}, {"type": "Feature", "properties": {"norad_id": 66506, "name": "STARLINK-34765", "group": "last-30-days", "lat": 33.88349527071782, "lon": -86.88312150843417, "alt_km": 410.6413514255919, "timestamp": "2025-12-10T07:43:53.548756+00:00", "meta": {"OBJECT_NAME": "STARLINK-34765", "OBJECT_ID": "2025-263X", "EPOCH": "2025-12-09T20:00:01.999008", "MEAN_MOTION": 15.50567004, "ECCENTRICITY": 0.0001536, "INCLINATION": 43.0007, "RA_OF_ASC_NODE": 142.0848, "ARG_OF_PERICENTER": 279.4484, "MEAN_ANOMALY": 353.9309, "EPHEMERIS_TYPE": 0, "CLASSIFICATION_TYPE": "U", "NORAD_CAT_ID": 66506, "ELEMENT_SET_NO": 999, "REV_AT_EPOCH": 516, "BSTAR": -4.7076e-05, "MEAN_MOTION_DOT": -3.101e-05, "MEAN_MOTION_DDOT": 0}, "tle": {"line1": "1 66506U 25263X   25343.83335647 -.00003101  00000+0 -47076-4 0  9991", "line2": "2 66506  43.0007 142.0848 0001536 279.4484 353.9309 15.50567004  5166"}}, "geometry": {"type": "Point", "coordinates": [-86.88312150843417, 33.88349527071782]}}, {"type": "Feature", "properties": {"norad_id": 66507, "name": "STARLINK-34767", "group": "last-30-days", "lat": 32.00926803724687, "lon": -82.91393747337364, "alt_km": 410.894389655974, "timestamp": "2025-12-10T07:43:53.548766+00:00", "meta": {"OBJECT_NAME": "STARLINK-34767", "OBJECT_ID": "2025-263Y", "EPOCH": "2025-12-09T20:00:01.999008", "MEAN_MOTION": 15.50561646, "ECCENTRICITY": 0.0001459, "INCLINATION": 43.0006, "RA_OF_ASC_NODE": 142.0743, "ARG_OF_PERICENTER": 278.8399, "MEAN_ANOMALY": 358.3789, "EPHEMERIS_TYPE": 0, "CLASSIFICATION_TYPE": "U", "NORAD_CAT_ID": 66507, "ELEMENT_SET_NO": 999, "REV_AT_EPOCH": 516, "BSTAR": -0.00013707, "MEAN_MOTION_DOT": -8.369e-05, "MEAN_MOTION_DDOT": 0}, "tle": {"line1": "1 66507U 25263Y   25343.83335647 -.00008369  00000+0 -13707-3 0  9996", "line2": "2 66507  43.0006 142.0743 0001459 278.8399 358.3789 15.50561646  5169"}}, "geometry": {"type": "Point", "coordinates": [-82.91393747337364, 32.00926803724687]}}, {"type": "Feature", "properties": {"norad_id": 66508, "name": "STARLINK-35608", "group": "last-30-days", "lat": 28.96701345932801, "lon": -77.24248126664419, "alt_km": 411.43099292048646, "timestamp": "2025-12-10T07:43:53.548776+00:00", "meta": {"OBJECT_NAME": "STARLINK-35608", "OBJECT_ID": "2025-263Z", "EPOCH": "2025-12-09T20:00:01.999008", "MEAN_MOTION": 15.50611498, "ECCENTRICITY": 0.0001574, "INCLINATION": 43.0007, "RA_OF_ASC_NODE": 142.0605, "ARG_OF_PERICENTER": 274.7344, "MEAN_ANOMALY": 8.2215, "EPHEMERIS_TYPE": 0, "CLASSIFICATION_TYPE": "U", "NORAD_CAT_ID": 66508, "ELEMENT_SET_NO": 999, "REV_AT_EPOCH": 516, "BSTAR": -0.0013768, "MEAN_MOTION_DOT": -0.00080382, "MEAN_MOTION_DDOT": 0}, "tle": {"line1": "1 66508U 25263Z   25343.83335647 -.00080382  00000+0 -13768-2 0  9998", "line2": "2 66508  43.0007 142.0605 0001574 274.7344   8.2215 15.50611498  5167"}}, "geometry": {"type": "Point", "coordinates": [-77.24248126664419, 28.96701345932801]}}, {"type": "Feature", "properties": {"norad_id": 66509, "name": "STARLINK-35598", "group": "last-30-days", "lat": 24.578606428775714, "lon": -70.21535478363857, "alt_km": 411.90419813052904, "timestamp": "2025-12-10T07:43:53.548786+00:00", "meta": {"OBJECT_NAME": "STARLINK-35598", "OBJECT_ID": "2025-263AA", "EPOCH": "2025-12-09T20:00:01.999008", "MEAN_MOTION": 15.50570461, "ECCENTRICITY": 0.0001452, "INCLINATION": 43.0007, "RA_OF_ASC_NODE": 142.039, "ARG_OF_PERICENTER": 273.8823, "MEAN_ANOMALY": 16.7523, "EPHEMERIS_TYPE": 0, "CLASSIFICATION_TYPE": "U", "NORAD_CAT_ID": 66509, "ELEMENT_SET_NO": 999, "REV_AT_EPOCH": 516, "BSTAR": -0.00026631, "MEAN_MOTION_DOT": -0.00015928, "MEAN_MOTION_DDOT": 0}, "tle": {"line1": "1 66509U 25263AA  25343.83335647 -.00015928  00000+0 -26631-3 0  9997", "line2": "2 66509  43.0007 142.0390 0001452 273.8823  16.7523 15.50570461  5166"}}, "geometry": {"type": "Point", "coordinates": [-70.21535478363857, 24.578606428775714]}}, {"type": "Feature", "properties": {"norad_id": 66510, "name": "STARLINK-35600", "group": "last-30-days", "lat": 27.901551575051396, "lon": -75.43205038852204, "alt_km": 411.42458138480106, "timestamp": "2025-12-10T07:43:53.548798+00:00", "meta": {"OBJECT_NAME": "STARLINK-35600", "OBJECT_ID": "2025-263AB", "EPOCH": "2025-12-09T20:00:01.999008", "MEAN_MOTION": 15.50565812, "ECCENTRICITY": 0.0001451, "INCLINATION": 43.0006, "RA_OF_ASC_NODE": 142.0539, "ARG_OF_PERICENTER": 275.1341, "MEAN_ANOMALY": 9.754, "EPHEMERIS_TYPE": 0, "CLASSIFICATION_TYPE": "U", "NORAD_CAT_ID": 66510, "ELEMENT_SET_NO": 999, "REV_AT_EPOCH": 516, "BSTAR": -6.5175e-05, "MEAN_MOTION_DOT": -4.161e-05, "MEAN_MOTION_DDOT": 0}, "tle": {"line1": "1 66510U 25263AB  25343.83335647 -.00004161  00000+0 -65175-4 0  9993", "line2": "2 66510  43.0006 142.0539 0001451 275.1341   9.7540 15.50565812  5166"}}, "geometry": {"type": "Point", "coordinates": [-75.43205038852204, 27.901551575051396]}}, {"type": "Feature", "properties": {"norad_id": 66511, "name": "STARLINK-35444", "group": "last-30-days", "lat": 25.7049140665893, "lon": -71.91687996255465, "alt_km": 411.78147176722086, "timestamp": "2025-12-10T07:43:53.548810+00:00", "meta": {"OBJECT_NAME": "STARLINK-35444", "OBJECT_ID": "2025-263AC", "EPOCH": "2025-12-09T20:00:01.999008", "MEAN_MOTION": 15.5060862, "ECCENTRICITY": 0.0001515, "INCLINATION": 43.0007, "RA_OF_ASC_NODE": 142.045, "ARG_OF_PERICENTER": 269.5734, "MEAN_ANOMALY": 19.1342, "EPHEMERIS_TYPE": 0, "CLASSIFICATION_TYPE": "U", "NORAD_CAT_ID": 66511, "ELEMENT_SET_NO": 999, "REV_AT_EPOCH": 516, "BSTAR": -0.0012545, "MEAN_MOTION_DOT": -0.00073326, "MEAN_MOTION_DDOT": 0}, "tle": {"line1": "1 66511U 25263AC  25343.83335647 -.00073326  00000+0 -12545-2 0  9994", "line2": "2 66511  43.0007 142.0450 0001515 269.5734  19.1342 15.50608620  5164"}}, "geometry": {"type": "Point", "coordinates": [-71.91687996255465, 25.7049140665893]}}, {"type": "Feature", "properties": {"norad_id": 66512, "name": "STARLINK-35366", "group": "last-30-days", "lat": 23.427492728465886, "lon": -68.53359675421316, "alt_km": 412.1035526609512, "timestamp": "2025-12-10T07:43:53.548820+00:00", "meta": {"OBJECT_NAME": "STARLINK-35366", "OBJECT_ID": "2025-263AD", "EPOCH": "2025-12-09T20:00:01.999008", "MEAN_MOTION": 15.50612382, "ECCENTRICITY": 0.0001509, "INCLINATION": 43.0007, "RA_OF_ASC_NODE": 142.0355, "ARG_OF_PERICENTER": 269.5955, "MEAN_ANOMALY": 22.9433, "EPHEMERIS_TYPE": 0, "CLASSIFICATION_TYPE": "U", "NORAD_CAT_ID": 66512, "ELEMENT_SET_NO": 999, "REV_AT_EPOCH": 516, "BSTAR": -0.0013727, "MEAN_MOTION_DOT": -0.00080148, "MEAN_MOTION_DDOT": 0}, "tle": {"line1": "1 66512U 25263AD  25343.83335647 -.00080148  00000+0 -13727-2 0  9998", "line2": "2 66512  43.0007 142.0355 0001509 269.5955  22.9433 15.50612382  5160"}}, "geometry": {"type": "Point", "coordinates": [-68.53359675421316, 23.427492728465886]}}, {"type": "Feature", "properties": {"norad_id": 66513, "name": "STARLINK-35692", "group": "last-30-days", "lat": 26.853741824167624, "lon": -73.72108460979021, "alt_km": 411.8874578299419, "timestamp": "2025-12-10T07:43:53.548830+00:00", "meta": {"OBJECT_NAME": "STARLINK-35692", "OBJECT_ID": "2025-263AE", "EPOCH": "2025-12-09T20:00:01.999008", "MEAN_MOTION": 15.50582194, "ECCENTRICITY": 0.0001472, "INCLINATION": 43.0006, "RA_OF_ASC_NODE": 142.0492, "ARG_OF_PERICENTER": 277.8927, "MEAN_ANOMALY": 8.9058, "EPHEMERIS_TYPE": 0, "CLASSIFICATION_TYPE": "U", "NORAD_CAT_ID": 66513, "ELEMENT_SET_NO": 999, "REV_AT_EPOCH": 516, "BSTAR": -0.0018953, "MEAN_MOTION_DOT": -0.00109995, "MEAN_MOTION_DDOT": 0}, "tle": {"line1": "1 66513U 25263AE  25343.83335647 -.00109995  00000+0 -18953-2 0  9997", "line2": "2 66513  43.0006 142.0492 0001472 277.8927   8.9058 15.50582194  5166"}}, "geometry": {"type": "Point", "coordinates": [-73.72108460979021, 26.853741824167624]}}, {"type": "Feature", "properties": {"norad_id": 66514, "name": "SENTINEL-6B", "group": "last-30-days", "lat": 58.35746939841705, "lon": -58.73179634239575, "alt_km": 1333.620655989128, "timestamp": "2025-12-10T07:43:53.548840+00:00", "meta": {"OBJECT_NAME": "SENTINEL-6B", "OBJECT_ID": "2025-264A", "EPOCH": "2025-12-08T23:22:28.384896", "MEAN_MOTION": 12.84031992, "ECCENTRICITY": 0.00210406, "INCLINATION": 66.0385, "RA_OF_ASC_NODE": 170.2707, "ARG_OF_PERICENTER": 268.23, "MEAN_ANOMALY": 91.6307, "EPHEMERIS_TYPE": 0, "CLASSIFICATION_TYPE": "U", "NORAD_CAT_ID": 66514, "ELEMENT_SET_NO": 999, "REV_AT_EPOCH": 280, "BSTAR": 0.000106025, "MEAN_MOTION_DOT": -3.6e-07, "MEAN_MOTION_DDOT": 0}, "tle": {"line1": "1 66514U 25264A   25342.97393964 -.00000036  00000+0  10602-3 0  9998", "line2": "2 66514  66.0385 170.2707 0021040 268.2300  91.6307 12.84031992  2809"}}, "geometry": {"type": "Point", "coordinates": [-58.73179634239575, 58.35746939841705]}}]}